NORAD_CAT_ID,OBJECT_NAME,OBJECT_TYPE,EPOCH,MEAN_MOTION,ECCENTRICITY,INCLINATION,RA_OF_ASC_NODE,ARG_OF_PERICENTER,MEAN_ANOMALY,BSTAR,MEAN_MOTION_DOT,MEAN_MOTION_DDOT,TLE_LINE0,TLE_LINE1,TLE_LINE2,SEMIMAJOR_AXIS,PERIOD,APOGEE,PERIGEE,DECAYED
53864.0,STARLINK-4779,PAYLOAD,2023-06-16 02:02:52,15.08844139,0.0001207,53.2173,82.1078,98.6745,261.4383,9.6476e-05,1.248e-05,0.0,0 STARLINK-4779,1 53864U 22114AY  23167.08533254  .00001248  00000-0  96476-4 0  9996,2 53864  53.2173  82.1078 0001207  98.6745 261.4383 15.08844139 41975,6917.868,95.437,540.568,538.898,0.0
53864.0,STARLINK-4779,PAYLOAD,2023-06-16 08:24:25,15.08833861,0.0001214,53.2173,80.9176,94.3153,265.7978,2.6847e-05,1.39e-06,0.0,0 STARLINK-4779,1 53864U 22114AY  23167.35030053  .00000139  00000-0  26847-4 0  9998,2 53864  53.2173  80.9176 0001214  94.3153 265.7978 15.08833861 42017,6917.899,95.438,540.604,538.924,0.0
53864.0,STARLINK-4779,PAYLOAD,2023-06-16 11:35:12,15.08835273,0.0001212,53.2173,80.3227,97.6711,262.4419,4.2681e-05,3.91e-06,0.0,0 STARLINK-4779,1 53864U 22114AY  23167.48277954  .00000391  00000-0  42681-4 0  9999,2 53864  53.2173  80.3227 0001212  97.6711 262.4419 15.08835273 42576,6917.895,95.438,540.598,538.921,0.0
53864.0,STARLINK-4779,PAYLOAD,2023-06-16 14:45:58,15.08841838,0.0001196,53.2173,79.728,95.6952,264.4176,4.7986e-05,4.76e-06,0.0,0 STARLINK-4779,1 53864U 22114AY  23167.61525586  .00000476  00000-0  47986-4 0  9998,2 53864  53.2173  79.7280 0001196  95.6952 264.4176 15.08841838 42052,6917.875,95.437,540.567,538.912,0.0
53864.0,STARLINK-4779,PAYLOAD,2023-06-16 19:32:06,15.08848301,0.0001221,53.2174,78.8361,93.818,266.2952,0.00010268,1.347e-05,0.0,0 STARLINK-4779,1 53864U 22114AY  23167.81396979  .00001347  00000-0  10268-3 0  9992,2 53864  53.2174  78.8361 0001221  93.8180 266.2952 15.08848301 42622,6917.855,95.437,540.565,538.875,0.0
53864.0,STARLINK-4779,PAYLOAD,2023-06-17 00:18:16,15.08856564,0.0001204,53.2169,77.944,91.6639,268.4491,0.0002773,4.13e-05,0.0,0 STARLINK-4779,1 53864U 22114AY  23168.01268711  .00004130  00000-0  27730-3 0  9992,2 53864  53.2169  77.9440 0001204  91.6639 268.4491 15.08856564 42116,6917.83,95.437,540.528,538.862,0.0
53864.0,STARLINK-4779,PAYLOAD,2023-06-17 08:15:12,15.08820406,0.0001297,53.2167,76.4574,70.5773,289.536,-0.00049617,-8.171e-05,0.0,0 STARLINK-4779,1 53864U 22114AY  23168.34389863 -.00008171  00000-0 -49617-3 0  9999,2 53864  53.2167  76.4574 0001297  70.5773 289.5360 15.08820406 42163,6917.94,95.439,540.703,538.908,0.0
53864.0,STARLINK-4779,PAYLOAD,2023-06-17 11:25:58,15.08819945,0.0001189,53.2164,75.8627,81.1327,278.9799,-0.00064443,-0.00010524,0.0,0 STARLINK-4779,1 53864U 22114AY  23168.47637722 -.00010524  00000-0 -64443-3 0  9992,2 53864  53.2164  75.8627 0001189  81.1327 278.9799 15.08819945 42721,6917.942,95.439,540.629,538.984,0.0
53864.0,STARLINK-4779,PAYLOAD,2023-06-17 17:47:31,15.08822091,0.0001193,53.2164,74.6732,76.7594,283.3531,-0.00031705,-5.328e-05,0.0,0 STARLINK-4779,1 53864U 22114AY  23168.74133893 -.00005328  00000-0 -31705-3 0  9993,2 53864  53.2164  74.6732 0001193  76.7594 283.3531 15.08822091 42221,6917.935,95.439,540.625,538.975,0.0
53864.0,STARLINK-4779,PAYLOAD,2023-06-17 20:58:18,15.08817562,0.0001227,53.2167,74.0791,72.1869,287.9257,0.00058598,9.045e-05,0.0,0 STARLINK-4779,1 53864U 22114AY  23168.87382234  .00009045  00000-0  58598-3 0  9999,2 53864  53.2167  74.0791 0001227  72.1869 287.9257 15.08817562 42789,6917.949,95.439,540.663,538.965,0.0
53864.0,STARLINK-4779,PAYLOAD,2023-06-18 08:06:00,15.08828352,0.0001284,53.2167,71.9976,66.9993,293.1134,0.0013356,0.00021025,0.0,0 STARLINK-4779,1 53864U 22114AY  23169.33750875  .00021025  00000-0  13356-2 0  9995,2 53864  53.2167  71.9976 0001284  66.9993 293.1134 15.08828352 42313,6917.916,95.438,540.669,538.893,0.0
53864.0,STARLINK-4779,PAYLOAD,2023-06-18 19:13:42,15.08849477,0.0001277,53.2169,69.9161,68.7025,291.4103,0.0013351,0.00021029,0.0,0 STARLINK-4779,1 53864U 22114AY  23169.80118851  .00021029  00000-0  13351-2 0  9998,2 53864  53.2169  69.9161 0001277  68.7025 291.4103 15.08849477 42921,6917.851,95.437,540.6,538.833,0.0
53864.0,STARLINK-4779,PAYLOAD,2023-06-19 12:42:56,15.08851518,0.000123,53.2172,66.6448,88.2819,271.8314,0.00038475,5.843e-05,0.0,0 STARLINK-4779,1 53864U 22114AY  23170.52982273  .00005843  00000-0  38475-3 0  9997,2 53864  53.2172  66.6448 0001230  88.2819 271.8314 15.08851518 43032,6917.845,95.437,540.561,538.859,0.0
53864.0,STARLINK-4779,PAYLOAD,2023-06-19 15:53:42,15.08851977,0.0001274,53.2171,66.0501,80.6425,279.4711,0.00033012,4.972e-05,0.0,0 STARLINK-4779,1 53864U 22114AY  23170.66230226  .00004972  00000-0  33012-3 0  9990,2 53864  53.2171  66.0501 0001274  80.6425 279.4711 15.08851977 42518,6917.844,95.437,540.59,538.827,0.0
53864.0,STARLINK-4779,PAYLOAD,2023-06-19 19:04:29,15.08858948,0.0001152,53.2171,65.4555,65.1963,294.9149,0.00061898,9.582e-05,0.0,0 STARLINK-4779,1 53864U 22114AY  23170.79478083  .00009582  00000-0  61898-3 0  9994,2 53864  53.2171  65.4555 0001152  65.1963 294.9149 15.08858948 43074,6917.822,95.436,540.484,538.891,0.0
53864.0,STARLINK-4779,PAYLOAD,2023-06-20 03:01:24,15.08865823,0.0001192,53.2171,63.9693,77.8259,282.2867,0.0014433,0.00022773,0.0,0 STARLINK-4779,1 53864U 22114AY  23171.12597693  .00022773  00000-0  14433-2 0  9990,2 53864  53.2171  63.9693 0001192  77.8259 282.2867 15.08865823 42584,6917.801,95.436,540.491,538.842,0.0
53864.0,STARLINK-4779,PAYLOAD,2023-06-20 17:19:52,15.08844934,9.31e-05,53.217,61.2928,55.0061,305.1018,0.00089656,0.00014012,0.0,0 STARLINK-4779,1 53864U 22114AY  23171.72214041  .00014012  00000-0  89656-3 0  9996,2 53864  53.2170  61.2928 0000931  55.0061 305.1018 15.08844934 42677,6917.865,95.437,540.374,539.086,0.0
53864.0,STARLINK-4779,PAYLOAD,2023-06-20 20:30:39,15.08845345,0.0001143,53.2169,60.6984,94.2016,265.9106,0.00087577,0.00013679,0.0,0 STARLINK-4779,1 53864U 22114AY  23171.85461955  .00013679  00000-0  87577-3 0  9996,2 53864  53.2169  60.6984 0001143  94.2016 265.9106 15.08845345 43232,6917.864,95.437,540.52,538.938,0.0
53864.0,STARLINK-4779,PAYLOAD,2023-06-21 02:52:11,15.08858927,0.0001139,53.2169,59.5085,89.545,270.5672,0.00089608,0.00014009,0.0,0 STARLINK-4779,1 53864U 22114AY  23172.11957622  .00014009  00000-0  89608-3 0  9992,2 53864  53.2169  59.5085 0001139  89.5450 270.5672 15.08858927 43279,6917.823,95.436,540.475,538.9,0.0
53864.0,STARLINK-4779,PAYLOAD,2023-06-21 20:21:26,15.08844025,0.0001322,53.2167,56.2377,78.3573,281.7567,0.00077224,0.00012025,0.0,0 STARLINK-4779,1 53864U 22114AY  23172.84822374  .00012025  00000-0  77224-3 0  9994,2 53864  53.2167  56.2377 0001322  78.3573 281.7567 15.08844025 43384,6917.868,95.437,540.648,538.819,0.0
53864.0,STARLINK-4779,PAYLOAD,2023-06-21 23:32:12,15.08841034,0.0001156,53.2165,55.6434,84.3674,275.745,0.0010418,0.00016332,0.0,0 STARLINK-4779,1 53864U 22114AY  23172.98070382  .00016332  00000-0  10418-2 0  9999,2 53864  53.2165  55.6434 0001156  84.3674 275.7450 15.08841034 42866,6917.877,95.437,540.542,538.943,0.0
53864.0,STARLINK-4779,PAYLOAD,2023-06-22 09:04:31,15.08839085,0.0001179,53.2164,53.8574,89.8525,270.2603,0.00040633,6.185e-05,0.0,0 STARLINK-4779,1 53864U 22114AY  23173.37814435  .00006185  00000-0  40633-3 0  9996,2 53864  53.2164  53.8574 0001179  89.8525 270.2603 15.08839085 42920,6917.883,95.438,540.564,538.933,0.0
53864.0,STARLINK-4779,PAYLOAD,2023-06-23 00:58:22,15.08860296,0.0001126,53.216,50.885,92.064,268.0481,0.0009386,0.0001469,0.0,0 STARLINK-4779,1 53864U 22114AY  23174.04053983  .00014690  00000-0  93860-3 0  9994,2 53864  53.2160  50.8850 0001126  92.0640 268.0481 15.08860296 43025,6917.818,95.436,540.462,538.904,0.0
53864.0,STARLINK-4779,PAYLOAD,2023-06-23 10:30:41,15.08837968,7.04e-05,53.2166,49.0961,140.7311,219.3732,2.6413e-05,1.33e-06,0.0,0 STARLINK-4779,1 53864U 22114AY  23174.43798102  .00000133  00000-0  26413-4 0  9994,2 53864  53.2166  49.0961 0000704 140.7311 219.3732 15.08837968 43085,6917.887,95.438,540.239,539.265,0.0
53864.0,STARLINK-4779,PAYLOAD,2023-06-24 15:07:38,15.08841453,0.0001177,53.2158,43.7477,81.9048,278.2077,0.00027523,4.095e-05,0.0,0 STARLINK-4779,1 53864U 22114AY  23175.63030624  .00004095  00000-0  27523-3 0  9998,2 53864  53.2158  43.7477 0001177  81.9048 278.2077 15.08841453 43267,6917.876,95.437,540.555,538.927,0.0
53864.0,STARLINK-4779,PAYLOAD,2023-06-26 00:30:44,15.08846518,0.0001243,53.2168,37.5024,94.6713,265.4422,0.00019448,2.809e-05,0.0,0 STARLINK-4779,1 53864U 22114AY  23177.02134373  .00002809  00000-0  19448-3 0  9997,2 53864  53.2168  37.5024 0001243  94.6713 265.4422 15.08846518 43473,6917.86,95.437,540.585,538.866,0.0
53864.0,STARLINK-4779,PAYLOAD,2023-06-26 21:10:45,15.08839506,0.0001135,53.217,33.6367,85.4899,274.6223,8.5032e-05,1.066e-05,0.0,0 STARLINK-4779,1 53864U 22114AY  23177.88246942  .00001066  00000-0  85032-4 0  9994,2 53864  53.2170  33.6367 0001135  85.4899 274.6223 15.08839506 43601,6917.882,95.438,540.532,538.962,0.0
53864.0,STARLINK-4779,PAYLOAD,2023-06-28 00:12:18,15.08848761,0.0001096,53.2175,28.5814,87.7825,272.3293,0.00022243,3.255e-05,0.0,0 STARLINK-4779,1 53864U 22114AY  23179.00854549  .00003255  00000-0  22243-3 0  9994,2 53864  53.2175  28.5814 0001096  87.7825 272.3293 15.08848761 43779,6917.854,95.437,540.477,538.96,0.0
53864.0,STARLINK-4779,PAYLOAD,2023-06-28 17:41:33,15.08836645,0.000105,53.2176,25.3103,86.549,273.5622,5.9354e-05,6.57e-06,0.0,0 STARLINK-4779,1 53864U 22114AY  23179.73719227  .00000657  00000-0  59354-4 0  9994,2 53864  53.2176  25.3103 0001050  86.5490 273.5622 15.08836645 43880,6917.891,95.438,540.482,539.029,0.0
53864.0,STARLINK-4779,PAYLOAD,2023-06-28 20:52:19,15.08846954,0.0001061,53.2173,24.7161,88.1457,271.9657,0.0001944,2.808e-05,0.0,0 STARLINK-4779,1 53864U 22114AY  23179.86966699  .00002808  00000-0  19440-3 0  9996,2 53864  53.2173  24.7161 0001061  88.1457 271.9657 15.08846954 43904,6917.859,95.437,540.458,538.99,0.0
